{"fetched_at":"2026-04-02T20:35:37Z","count":5048,"tles":[{"name":"RASSVET-3 1","line1":"1 68360U 26061A   26090.65705623  .00127932  45424-5  43734-3 0  9991","line2":"2 68360  82.2962  99.7107 0026761  45.1037 315.2400 15.89002217  1268","category":"Other"}]}